ONEWEB-0674             
1 55833U 23029AP  25324.31338183  .00000141  00000+0  34628-3 0  9997
2 55833  87.8975 331.3488 0001844 106.6644 253.4688 13.14502332131975
ONEWEB-0675             
1 55834U 23029AQ  25324.10451837  .00003281  00000+0  81613-2 0  9990
2 55834  87.9200 346.5940 0001813  87.2662 272.8678 13.19710389131342
ONEWEB-0720             
1 55835U 23029AR  25324.09661501  .00000110  00000+0  24346-3 0  9999
2 55835  87.9198 346.5925 0002234  93.8551 266.2837 13.19727188131260
ONEWEB-0537             
1 56046U 23043A   25324.12695447  .00000021  00000+0  22250-4 0  9994
2 56046  87.9020 270.4026 0001782  72.9451 287.1875 13.16592921131457
ONEWEB-0538             
1 56047U 23043B   25324.27261847  .00000029  00000+0  43221-4 0  9993
2 56047  87.9016 270.3789 0002066  71.8936 288.2420 13.16593021131483
ONEWEB-0546             
1 56048U 23043C   25324.25994872  .00000008  00000+0 -13620-4 0  9991
2 56048  87.9033 270.3703 0001433  59.3276 300.7996 13.16593461131479
ONEWEB-0547             
1 56049U 23043D   25324.17540061 -.00000326  00000+0 -81995-3 0  9993
2 56049  87.9189 285.6640 0002060  81.4812 278.6555 13.21824473130615
ONEWEB-0548             
1 56050U 23043E   25324.13249669  .00000012  00000+0 -20834-5 0  9999
2 56050  87.9010 270.4061 0001736  94.1961 265.9369 13.16596703131455
